NORAD_CAT_ID,OBJECT_NAME,OBJECT_TYPE,EPOCH,MEAN_MOTION,ECCENTRICITY,INCLINATION,RA_OF_ASC_NODE,ARG_OF_PERICENTER,MEAN_ANOMALY,BSTAR,MEAN_MOTION_DOT,MEAN_MOTION_DDOT,TLE_LINE0,TLE_LINE1,TLE_LINE2,SEMIMAJOR_AXIS,PERIOD,APOGEE,PERIGEE,DECAYED
53142.0,STARLINK-4101,PAYLOAD,2024-06-05 07:45:56,15.08845341,0.0001089,53.2149,177.7839,86.7542,273.3575,0.00029243,4.37e-05,0.0,0 STARLINK-4101,1 53142U 22083L   24157.32357322  .00004370  00000-0  29243-3 0  9993,2 53142  53.2149 177.7839 0001089  86.7542 273.3575 15.08845341104256,6917.864,95.437,540.482,538.976,0.0
53142.0,STARLINK-4101,PAYLOAD,2024-06-05 18:53:38,15.08849191,0.0001164,53.215,175.7025,77.5166,282.5956,0.0002915,4.356e-05,0.0,0 STARLINK-4101,1 53142U 22083L   24157.78725097  .00004356  00000-0  29150-3 0  9992,2 53142  53.2150 175.7025 0001164  77.5166 282.5956 15.08849191104945,6917.852,95.437,540.523,538.912,0.0
53142.0,STARLINK-4101,PAYLOAD,2024-06-06 07:36:42,15.08862537,0.0001096,53.2151,173.3233,81.6336,278.478,0.00019387,2.801e-05,0.0,0 STARLINK-4101,1 53142U 22083L   24158.31715913  .00002801  00000-0  19387-3 0  9992,2 53142  53.2151 173.3233 0001096  81.6336 278.4780 15.08862537105028,6917.812,95.436,540.435,538.918,0.0
53142.0,STARLINK-4101,PAYLOAD,2024-06-07 01:05:57,15.08853954,0.0001147,53.2157,170.0532,76.3929,283.7191,2.7357e-06,-2.44e-06,0.0,0 STARLINK-4101,1 53142U 22083L   24159.04580339 -.00000244  00000-0  27357-5 0  9993,2 53142  53.2157 170.0532 0001147  76.3929 283.7191 15.08853954105136,6917.838,95.437,540.496,538.909,0.0
53142.0,STARLINK-4101,PAYLOAD,2024-06-08 04:07:30,15.08845849,0.000126,53.2166,164.9966,88.1795,271.9341,-6.3144e-05,-1.293e-05,0.0,0 STARLINK-4101,1 53142U 22083L   24160.17188445 -.00001293  00000-0 -63144-4 0  9990,2 53142  53.2166 164.9966 0001260  88.1795 271.9341 15.08845849105306,6917.863,95.437,540.599,538.856,0.0
53142.0,STARLINK-4101,PAYLOAD,2024-06-08 07:18:16,15.08848051,0.0001217,53.2167,164.4023,85.5814,274.5317,-4.2397e-05,-9.63e-06,0.0,0 STARLINK-4101,1 53142U 22083L   24160.30436145 -.00000963  00000-0 -42397-4 0  9998,2 53142  53.2167 164.4023 0001217  85.5814 274.5317 15.08848051104704,6917.856,95.437,540.563,538.879,0.0
53142.0,STARLINK-4101,PAYLOAD,2024-06-08 16:50:35,15.08844891,0.0001184,53.2158,162.6193,82.7207,277.3919,-0.00011243,-2.077e-05,0.0,0 STARLINK-4101,1 53142U 22083L   24160.70180384 -.00002077  00000-0 -11243-3 0  9996,2 53142  53.2158 162.6193 0001184  82.7207 277.3919 15.08844891104763,6917.865,95.437,540.55,538.911,0.0
53142.0,STARLINK-4101,PAYLOAD,2024-06-09 03:58:18,15.08827535,0.0001278,53.2164,160.5386,88.772,271.3419,2.8508e-05,1.66e-06,0.0,0 STARLINK-4101,1 53142U 22083L   24161.16549388  .00000166  00000-0  28508-4 0  9998,2 53142  53.2164 160.5386 0001278  88.7720 271.3419 15.08827535105453,6917.918,95.438,540.668,538.899,0.0
53142.0,STARLINK-4101,PAYLOAD,2024-06-09 05:33:41,15.08828067,0.0001283,53.2163,160.2412,88.7507,271.3632,3.3678e-05,2.48e-06,0.0,0 STARLINK-4101,1 53142U 22083L   24161.23173433  .00000248  00000-0  33678-4 0  9995,2 53142  53.2163 160.2412 0001283  88.7507 271.3632 15.08828067104848,6917.917,95.438,540.669,538.894,0.0
53142.0,STARLINK-4101,PAYLOAD,2024-06-09 16:41:23,15.08833146,0.0001296,53.2162,158.1599,89.5965,270.5176,5.7219e-05,6.23e-06,0.0,0 STARLINK-4101,1 53142U 22083L   24161.69541316  .00000623  00000-0  57219-4 0  9998,2 53142  53.2162 158.1599 0001296  89.5965 270.5176 15.08833146104916,6917.901,95.438,540.663,538.87,0.0
53142.0,STARLINK-4101,PAYLOAD,2024-06-10 05:24:28,15.08839263,0.0001266,53.2158,155.7813,93.8949,266.2188,9.848e-05,1.28e-05,0.0,0 STARLINK-4101,1 53142U 22083L   24162.22532961  .00001280  00000-0  98480-4 0  9999,2 53142  53.2158 155.7813 0001266  93.8949 266.2188 15.08839263105619,6917.883,95.438,540.623,538.872,0.0
53142.0,STARLINK-4101,PAYLOAD,2024-06-10 08:35:14,15.08840369,0.0001272,53.2158,155.1867,94.1328,265.9809,0.00010622,1.403e-05,0.0,0 STARLINK-4101,1 53142U 22083L   24162.35780900  .00001403  00000-0  10622-3 0  9999,2 53142  53.2158 155.1867 0001272  94.1328 265.9809 15.08840369105013,6917.879,95.438,540.624,538.864,0.0
53142.0,STARLINK-4101,PAYLOAD,2024-06-10 16:32:10,15.08838777,0.0001273,53.2157,153.699,89.9822,270.1316,8.7126e-05,1.099e-05,0.0,0 STARLINK-4101,1 53142U 22083L   24162.68901107  .00001099  00000-0  87126-4 0  9994,2 53142  53.2157 153.6990 0001273  89.9822 270.1316 15.08838777105060,6917.884,95.438,540.63,538.868,0.0
53142.0,STARLINK-4101,PAYLOAD,2024-06-11 05:15:15,15.08835784,0.000134,53.2163,151.3163,86.8354,273.2791,0.00010298,1.351e-05,0.0,0 STARLINK-4101,1 53142U 22083L   24163.21893446  .00001351  00000-0  10298-3 0  9996,2 53142  53.2163 151.3163 0001340  86.8354 273.2791 15.08835784105768,6917.893,95.438,540.685,538.831,0.0
53142.0,STARLINK-4101,PAYLOAD,2024-06-11 08:26:02,15.08837183,0.0001345,53.2164,150.7222,87.2384,272.8762,0.0001137,1.522e-05,0.0,0 STARLINK-4101,1 53142U 22083L   24163.35141392  .00001522  00000-0  11370-3 0  9999,2 53142  53.2164 150.7222 0001345  87.2384 272.8762 15.08837183105163,6917.889,95.438,540.684,538.824,0.0
53142.0,STARLINK-4101,PAYLOAD,2024-06-12 06:41:25,15.08844065,0.0001294,53.216,146.5604,87.8495,272.2646,6.2556e-05,7.08e-06,0.0,0 STARLINK-4101,1 53142U 22083L   24164.27877125  .00000708  00000-0  62556-4 0  9999,2 53142  53.2160 146.5604 0001294  87.8495 272.2646 15.08844065105306,6917.868,95.437,540.628,538.838,0.0
53142.0,STARLINK-4101,PAYLOAD,2024-06-12 08:16:48,15.08844613,0.0001297,53.216,146.2629,87.9341,272.1799,6.5942e-05,7.62e-06,0.0,0 STARLINK-4101,1 53142U 22083L   24164.34501063  .00000762  00000-0  65942-4 0  9994,2 53142  53.2160 146.2629 0001297  87.9341 272.1799 15.08844613105930,6917.866,95.437,540.629,538.834,0.0
53142.0,STARLINK-4101,PAYLOAD,2024-06-12 16:13:44,15.08842341,0.0001302,53.2161,144.7762,87.4579,272.6562,4.3655e-05,4.07e-06,0.0,0 STARLINK-4101,1 53142U 22083L   24164.67621174  .00000407  00000-0  43655-4 0  9999,2 53142  53.2161 144.7762 0001302  87.4579 272.6562 15.08842341105363,6917.873,95.437,540.639,538.838,0.0
53142.0,STARLINK-4101,PAYLOAD,2024-06-13 08:07:35,15.08843704,0.0001308,53.2159,141.8021,88.9449,271.1693,7.982e-05,9.83e-06,0.0,0 STARLINK-4101,1 53142U 22083L   24165.33860960  .00000983  00000-0  79820-4 0  9993,2 53142  53.2159 141.8021 0001308  88.9449 271.1693 15.08843704105468,6917.869,95.437,540.639,538.829,0.0
53142.0,STARLINK-4101,PAYLOAD,2024-06-13 16:04:31,15.08838012,0.0001281,53.2159,140.3143,91.4063,268.7076,3.8535e-05,3.25e-06,0.0,0 STARLINK-4101,1 53142U 22083L   24165.66981376  .00000325  00000-0  38535-4 0  9992,2 53142  53.2159 140.3143 0001281  91.4063 268.7076 15.08838012105517,6917.886,95.438,540.638,538.865,0.0
53142.0,STARLINK-4101,PAYLOAD,2024-06-14 04:47:37,15.08837611,0.0001357,53.2163,137.9349,97.3124,262.8022,1.5571e-05,-4e-07,0.0,0 STARLINK-4101,1 53142U 22083L   24166.19973553 -.00000040  00000-0  15571-4 0  9999,2 53142  53.2163 137.9349 0001357  97.3124 262.8022 15.08837611105597,6917.888,95.438,540.691,538.814,0.0
53142.0,STARLINK-4101,PAYLOAD,2024-06-14 22:16:51,15.08839375,0.0001394,53.2162,134.663,103.0133,257.1015,1.6665e-05,-2.3e-07,0.0,0 STARLINK-4101,1 53142U 22083L   24166.92837478 -.00000023  00000-0  16665-4 0  9991,2 53142  53.2162 134.6630 0001394 103.0133 257.1015 15.08839375105700,6917.882,95.438,540.712,538.783,0.0
53142.0,STARLINK-4101,PAYLOAD,2024-06-15 07:49:10,15.08843689,0.0001365,53.2157,132.8822,88.1831,271.9317,8.3107e-05,1.035e-05,0.0,0 STARLINK-4101,1 53142U 22083L   24167.32581058  .00001035  00000-0  83107-4 0  9994,2 53142  53.2157 132.8822 0001365  88.1831 271.9317 15.08843689105761,6917.869,95.437,540.678,538.79,0.0
53142.0,STARLINK-4101,PAYLOAD,2024-06-15 22:07:38,15.08834262,0.0001355,53.2158,130.2055,86.699,273.4157,6.2733e-05,7.1e-06,0.0,0 STARLINK-4101,1 53142U 22083L   24167.92197788  .00000710  00000-0  62733-4 0  9994,2 53142  53.2158 130.2055 0001355  86.6990 273.4157 15.08834262105856,6917.898,95.438,540.7,538.826,0.0
53142.0,STARLINK-4101,PAYLOAD,2024-06-16 14:01:30,15.08839261,0.0001324,53.2168,127.2306,82.4213,277.693,5.9783e-05,6.64e-06,0.0,0 STARLINK-4101,1 53142U 22083L   24168.58437586  .00000664  00000-0  59783-4 0  9999,2 53142  53.2168 127.2306 0001324  82.4213 277.6930 15.08839261105950,6917.883,95.438,540.664,538.832,0.0
53142.0,STARLINK-4101,PAYLOAD,2024-06-16 20:23:02,15.08837202,0.0001403,53.2177,126.0459,91.6118,268.5035,1.6994e-05,-1.7e-07,0.0,0 STARLINK-4101,1 53142U 22083L   24168.84933943 -.00000017  00000-0  16994-4 0  9996,2 53142  53.2177 126.0459 0001403  91.6118 268.5035 15.08837202105992,6917.889,95.438,540.725,538.783,0.0
53142.0,STARLINK-4101,PAYLOAD,2024-06-17 13:52:17,15.08838557,0.0001285,53.2162,122.7723,86.57,273.5439,-2.4779e-05,-6.82e-06,0.0,0 STARLINK-4101,1 53142U 22083L   24169.57798153 -.00000682  00000-0 -24779-4 0  9998,2 53142  53.2162 122.7723 0001285  86.5700 273.5439 15.08838557106103,6917.885,95.438,540.639,538.861,0.0
53142.0,STARLINK-4101,PAYLOAD,2024-06-18 04:10:45,15.08842802,0.0001258,53.2159,120.0959,88.0381,272.0755,6.3371e-05,7.21e-06,0.0,0 STARLINK-4101,1 53142U 22083L   24170.17413800  .00000721  00000-0  63371-4 0  9992,2 53142  53.2159 120.0959 0001258  88.0381 272.0755 15.08842802106814,6917.872,95.437,540.607,538.867,0.0
53142.0,STARLINK-4101,PAYLOAD,2024-06-18 20:04:37,15.088279,0.0001329,53.2158,117.1226,83.7757,276.3386,8.4629e-05,1.059e-05,0.0,0 STARLINK-4101,1 53142U 22083L   24170.83654902  .00001059  00000-0  84629-4 0  9999,2 53142  53.2158 117.1226 0001329  83.7757 276.3386 15.08827900106915,6917.917,95.438,540.702,538.863,0.0
53142.0,STARLINK-4101,PAYLOAD,2024-06-19 13:33:52,15.08837483,0.0001374,53.2161,113.8505,86.8782,273.2367,7.4244e-06,-1.7e-06,0.0,0 STARLINK-4101,1 53142U 22083L   24171.56518832 -.00000170  00000-0  74244-5 0  9998,2 53142  53.2161 113.8505 0001374  86.8782 273.2367 15.08837483106400,6917.888,95.438,540.704,538.803,0.0
